ONEWEB-0171             
1 48070U 21025AE  24142.95564791 -.00000098  00000+0 -30447-3 0  9997
2 48070  87.8908 110.7753 0002201  84.2348 275.9032 13.13472641154346
ONEWEB-0172             
1 48071U 21025AF  24142.93501999 -.00000467  00000+0 -13147-2 0  9994
2 48071  87.8911 110.7459 0002288  83.7802 276.3588 13.13469496155232
ONEWEB-0174             
1 48072U 21025AG  24142.91757557  .00000080  00000+0  18377-3 0  9996
2 48072  87.8912 110.7638 0001922  79.0320 281.1025 13.13469822154557
ONEWEB-0175             
1 48073U 21025AH  24142.94612702 -.00000288  00000+0 -82425-3 0  9999
2 48073  87.8904 110.7486 0002374  92.4936 267.6465 13.13471966154216
ONEWEB-0177             
1 48074U 21025AJ  24142.95882597  .00000139  00000+0  34586-3 0  9990
2 48074  87.8904 110.7528 0002252  75.3392 284.7986 13.13473032154400
ONEWEB-0178             
1 48075U 21025AK  24142.90026055  .00000309  00000+0  81086-3 0  9991
2 48075  87.8913 110.7810 0002164  80.0839 280.0535 13.13472489154444
ONEWEB-0108             
1 48076U 21025AL  24142.93660642 -.00000614  00000+0 -17162-2 0  9995
2 48076  87.8904 110.7551 0001757  86.2076 273.9254 13.13469262154371
ONEWEB-0169             
1 48077U 21025AM  24142.89216945  .00000288  00000+0  75379-3 0  9994
2 48077  87.8907 110.7731 0001755  84.8786 275.2544 13.13473127153028
